ORBCOMM-X               
1 21576U 91050C   24164.15330107  .00000656  00000+0  21075-3 0  9997
2 21576  98.3895 231.4588 0003012 206.4910 153.6127 14.42548788728973
ORBCOMM FM01            
1 23545U 95017A   24164.00575971  .00009163  00000+0  12016-2 0  9992
2 23545  69.9673 270.6546 0005975 194.9730 165.1244 14.80568177557883
ORBCOMM FM08            
1 25112U 97084A   24163.87410922  .00002813  00000+0  87811-3 0  9999
2 25112  45.0158 341.5333 0008253 181.0030 179.0805 14.42775631388008
ORBCOMM FM10            
1 25113U 97084B   24164.22948882  .00002467  00000+0  77742-3 0  9998
2 25113  45.0172 341.7194 0005728 158.0367 202.0730 14.42670301388049
ORBCOMM FM12            
1 25115U 97084D   24164.21166120  .00002545  00000+0  80301-3 0  9998
2 25115  45.0164 341.6077 0005516 158.7092 201.3988 14.42509691388037
ORBCOMM FM09            
1 25116U 97084E   24163.87752295  .00002697  00000+0  84927-3 0  9990
2 25116  45.0169 343.8995 0006362 142.0944 218.0355 14.42470077387989
